[{"OBJECT_NAME":"SHIYAN-21 (SY-21)","OBJECT_ID":"2022-172A","EPOCH":"2026-03-09T23:40:42.191616","MEAN_MOTION":15.28197132,"ECCENTRICITY":0.00206059,"INCLINATION":35.9768,"RA_OF_ASC_NODE":332.6944,"ARG_OF_PERICENTER":79.3933,"MEAN_ANOMALY":280.9121,"EPHEMERIS_TYPE":0,"CLASSIFICATION_TYPE":"U","NORAD_CAT_ID":54752,"ELEMENT_SET_NO":999,"REV_AT_EPOCH":18050,"BSTAR":0.00041186164,"MEAN_MOTION_DOT":0.00011616,"MEAN_MOTION_DDOT":0},{"OBJECT_NAME":"STARLINK-32560","OBJECT_ID":"2024-210Z","EPOCH":"2026-03-09T15:06:24.643296","MEAN_MOTION":15.27631693,"ECCENTRICITY":0.0003359,"INCLINATION":43.0062,"RA_OF_ASC_NODE":179.9209,"ARG_OF_PERICENTER":300.7869,"MEAN_ANOMALY":59.2652,"EPHEMERIS_TYPE":0,"CLASSIFICATION_TYPE":"U","NORAD_CAT_ID":61982,"ELEMENT_SET_NO":999,"REV_AT_EPOCH":7487,"BSTAR":0.0010189,"MEAN_MOTION_DOT":0.0002793,"MEAN_MOTION_DDOT":0}]
